OBJECT_NAME,OBJECT_ID,EPOCH,MEAN_MOTION,ECCENTRICITY,INCLINATION,RA_OF_ASC_NODE,ARG_OF_PERICENTER,MEAN_ANOMALY,NORAD_CAT_ID,ELEMENT_SET_NO,REV_AT_EPOCH,BSTAR,MEAN_MOTION_DOT,MEAN_MOTION_DDOT
STARLINK-30100,2023-119X,2026-03-20T20:23:33.038016,15.26744464,0.00013307,43.002,18.509,279.6125,80.4576,57623.0,999.0,14479.0,3.7909877e-05,7.57e-06,0.0
LUDI TANCE-4 01A,2023-120A,2026-03-20T19:27:47.757024,1.00272506,0.00046406,15.163,196.1633,111.774,251.7507,57624.0,999.0,966.0,0.0,-1.87e-06,0.0
HEAD-3A,2023-121A,2026-03-21T06:05:26.490912,14.60525312,0.00062061,45.0028,24.0612,193.6003,166.4688,57626.0,999.0,13872.0,0.00019032925,7.74e-06,0.0
HEAD-3B,2023-121B,2026-03-21T06:04:42.495168,14.61426382,0.00047437,45.0039,17.879,184.0923,175.9896,57627.0,999.0,13880.0,0.00020356499,8.58e-06,0.0
HEAD-3C,2023-121C,2026-03-21T05:59:08.864160,14.62100053,0.00051977,45.0012,12.8174,181.9007,178.1831,57628.0,999.0,13886.0,0.00021139811,9.12e-06,0.0
HEAD-3D,2023-121D,2026-03-21T05:57:50.800896,14.6276514,0.00063585,45.0068,8.5561,175.9692,184.1218,57629.0,999.0,13892.0,0.00022152967,9.79e-06,0.0
HEAD-3E,2023-121E,2026-03-21T06:16:04.451232,14.63692014,0.00067058,45.0032,2.1822,165.668,194.4369,57630.0,999.0,13900.0,0.0002377107,1.087e-05,0.0
STARLINK-30309,2023-122A,2026-03-21T04:30:50.358240,15.27033536,0.00033006,43.0071,27.7306,34.0962,326.0101,57632.0,999.0,14396.0,0.001264064,0.00034111,0.0
STARLINK-30306,2023-122B,2026-03-20T20:45:42.600096,15.27374191,0.00022613,43.0059,29.6007,284.2784,75.7817,57633.0,999.0,14391.0,0.0015945537,0.00043602,0.0
STARLINK-30323,2023-122C,2026-03-20T13:24:08.125632,15.26747153,0.0002148,43.0066,19.7037,254.1198,105.9416,57634.0,999.0,14400.0,7.9291e-05,1.868e-05,0.0
STARLINK-30329,2023-122D,2026-03-20T20:55:02.161056,15.27398397,0.00010588,43.0,29.647,287.5838,72.4898,57635.0,999.0,14391.0,0.0032014529,0.00088405,0.0
STARLINK-30330,2023-122E,2026-03-21T03:17:08.584224,15.27396677,0.00024029,43.006,28.1973,266.138,93.9197,57636.0,999.0,14395.0,0.0015153116,0.00041439,0.0
STARLINK-30311,2023-122F,2026-03-21T03:37:19.666848,15.27377096,0.00013571,43.0023,27.4437,278.1589,81.9109,57637.0,999.0,14396.0,0.0032065887,0.00088491,0.0
STARLINK-30328,2023-122G,2026-03-20T13:23:13.830144,15.26746207,0.0003381,43.0119,19.6411,259.512,100.535,57638.0,999.0,14401.0,7.5622e-05,1.769e-05,0.0
STARLINK-30326,2023-122H,2026-03-20T21:57:37.321056,15.27623733,0.00012002,43.0066,29.1055,272.447,87.6244,57639.0,999.0,14392.0,-0.00032156117,-9.112e-05,0.0
STARLINK-30324,2023-122J,2026-03-20T22:23:33.573408,15.27579002,0.00012779,43.0026,29.2477,269.5683,90.5022,57640.0,999.0,14391.0,7.0129277e-05,1.668e-05,0.0
STARLINK-30312,2023-122K,2026-03-20T22:45:34.226784,15.27559702,0.00014667,43.0024,28.5044,263.5323,96.5361,57641.0,999.0,14393.0,-7.4885789e-05,-2.321e-05,0.0
STARLINK-30263,2023-122L,2026-03-20T21:26:14.233056,15.27383277,6.516e-05,43.0018,28.9486,280.6579,79.4199,57642.0,999.0,14392.0,0.0018545239,0.00050816,0.0
STARLINK-30280,2023-122M,2026-03-20T21:37:17.951808,15.27572074,0.00011906,43.0035,29.0041,272.0462,88.0254,57643.0,999.0,14392.0,-5.9654311e-05,-1.903e-05,0.0
STARLINK-30247,2023-122N,2026-03-21T03:48:20.028960,15.27626782,9.394e-05,43.0005,27.5023,253.2569,106.818,57644.0,999.0,14396.0,0.00042902943,0.00011579,0.0
STARLINK-30277,2023-122P,2026-03-21T04:11:58.050816,15.27566717,0.00022295,43.0037,245.5345,265.5638,94.4959,57645.0,999.0,14563.0,0.0001214516,3.08e-05,0.0
STARLINK-30265,2023-122Q,2026-03-21T04:00:00.999936,15.27553334,0.00010756,43.0011,27.3229,279.2852,181.9214,57646.0,999.0,572.0,0.00084494835,0.00023043,0.0
STARLINK-30286,2023-122R,2026-03-21T04:00:00.999936,15.27554763,0.00014248,43.0018,27.5567,277.7128,84.4001,57647.0,999.0,582.0,0.00093317308,0.00025486,0.0
STARLINK-30243,2023-122S,2026-03-21T02:51:12.787200,15.2759602,0.00018425,43.0059,28.0616,269.189,90.8751,57648.0,999.0,14395.0,0.00012863892,3.281e-05,0.0
STARLINK-30299,2023-122U,2026-03-20T20:14:13.081344,15.2759193,0.00033026,43.0098,29.4283,264.3047,95.7428,57650.0,999.0,14391.0,0.00019801516,5.192e-05,0.0
STARLINK-30294,2023-122V,2026-03-21T02:06:53.764128,15.27580639,0.00017112,43.0046,16.8153,257.2879,102.7782,57651.0,999.0,14408.0,1.1895352e-05,6.5e-07,0.0
STARLINK-30276,2023-122W,2026-03-20T21:44:19.484448,15.26742097,0.00014864,43.005,29.0381,267.2288,92.8393,57652.0,999.0,14392.0,9.2745717e-05,2.229e-05,0.0
STARLINK-30289,2023-122X,2026-03-21T00:00:00.999648,15.2675826,0.0001447,43.0002,17.7896,259.5581,113.7095,57653.0,999.0,564.0,-0.00039026527,-0.00010719,0.0
GAOFEN-12 04,2023-123A,2026-03-21T06:06:07.905888,14.80035077,0.00015217,97.9129,359.5461,73.8832,286.2547,57654.0,999.0,13962.0,0.00015877443,1.15e-05,0.0
STARLINK-30267,2023-124A,2026-03-20T22:01:07.924512,15.3019486,8.832e-05,53.1622,154.8729,128.0515,232.0565,57663.0,999.0,14528.0,3.5387457e-05,6.89e-06,0.0
