STARLINK-30100          
1 57623U 23119X   26079.84968794  .00000757  00000+0  37910-4 0  9990
2 57623  43.0020  18.5090 0001330 279.6125  80.4576 15.26744464144794
LUDI TANCE-4 01A        
1 57624U 23120A   26079.81096941 -.00000187  00000+0  00000+0 0  9999
2 57624  15.1630 196.1633 0004640 111.7740 251.7507  1.00272506  9667
HEAD-3A                 
1 57626U 23121A   26080.25377883  .00000774  00000+0  19033-3 0  9990
2 57626  45.0028  24.0612 0006206 193.6003 166.4688 14.60525312138727
HEAD-3B                 
1 57627U 23121B   26080.25326962  .00000858  00000+0  20356-3 0  9996
2 57627  45.0039  17.8790 0004743 184.0923 175.9896 14.61426382138809
HEAD-3C                 
1 57628U 23121C   26080.24940815  .00000912  00000+0  21140-3 0  9998
2 57628  45.0012  12.8174 0005197 181.9007 178.1831 14.62100053138860
HEAD-3D                 
1 57629U 23121D   26080.24850464  .00000979  00000+0  22153-3 0  9997
2 57629  45.0068   8.5561 0006358 175.9692 184.1218 14.62765140138924
HEAD-3E                 
1 57630U 23121E   26080.26116263  .00001087  00000+0  23771-3 0  9991
2 57630  45.0032   2.1822 0006705 165.6680 194.4369 14.63692014139007
STARLINK-30309          
1 57632U 23122A   26080.18808285  .00034111  00000+0  12641-2 0  9994
2 57632  43.0071  27.7306 0003300  34.0962 326.0101 15.27033536143966
STARLINK-30306          
1 57633U 23122B   26079.86507639  .00043602  00000+0  15946-2 0  9993
2 57633  43.0059  29.6007 0002261 284.2784  75.7817 15.27374191143910
STARLINK-30323          
1 57634U 23122C   26079.55842738  .00001868  00000+0  79291-4 0  9995
2 57634  43.0066  19.7037 0002148 254.1198 105.9416 15.26747153144004
STARLINK-30329          
1 57635U 23122D   26079.87155279  .00088405  00000+0  32015-2 0  9991
2 57635  43.0000  29.6470 0001058 287.5838  72.4898 15.27398397143918
STARLINK-30330          
1 57636U 23122E   26080.13690491  .00041439  00000+0  15153-2 0  9993
2 57636  43.0060  28.1973 0002402 266.1380  93.9197 15.27396677143959
STARLINK-30311          
1 57637U 23122F   26080.15092207  .00088491  00000+0  32066-2 0  9998
2 57637  43.0023  27.4437 0001357 278.1589  81.9109 15.27377096143963
STARLINK-30328          
1 57638U 23122G   26079.55779896  .00001769  00000+0  75622-4 0  9997
2 57638  43.0119  19.6411 0003381 259.5120 100.5350 15.26746207144014
STARLINK-30326          
1 57639U 23122H   26079.91501529 -.00009112  00000+0 -32156-3 0  9990
2 57639  43.0066  29.1055 0001200 272.4470  87.6244 15.27623733143921
STARLINK-30324          
1 57640U 23122J   26079.93302747  .00001668  00000+0  70129-4 0  9994
2 57640  43.0026  29.2477 0001277 269.5683  90.5022 15.27579002143910
STARLINK-30312          
1 57641U 23122K   26079.94831281 -.00002321  00000+0 -74886-4 0  9999
2 57641  43.0024  28.5044 0001466 263.5323  96.5361 15.27559702143935
STARLINK-30263          
1 57642U 23122L   26079.89322029  .00050816  00000+0  18545-2 0  9997
2 57642  43.0018  28.9486 0000651 280.6579  79.4199 15.27383277143921
STARLINK-30280          
1 57643U 23122M   26079.90090222 -.00001903  00000+0 -59654-4 0  9990
2 57643  43.0035  29.0041 0001190 272.0462  88.0254 15.27572074143928
STARLINK-30247          
1 57644U 23122N   26080.15856515  .00011579  00000+0  42903-3 0  9991
2 57644  43.0005  27.5023 0000939 253.2569 106.8180 15.27626782143965
STARLINK-30277          
1 57645U 23122P   26080.17497744  .00003080  00000+0  12145-3 0  9992
2 57645  43.0037 245.5345 0002229 265.5638  94.4959 15.27566717145630
STARLINK-30265          
1 57646U 23122Q   26080.16667824  .00023043  00000+0  84495-3 0  9998
2 57646  43.0011  27.3229 0001075 279.2852 181.9214 15.27553334  5720
STARLINK-30286          
1 57647U 23122R   26080.16667824  .00025486  00000+0  93317-3 0  9995
2 57647  43.0018  27.5567 0001424 277.7128  84.4001 15.27554763  5821
STARLINK-30243          
1 57648U 23122S   26080.11889800  .00003281  00000+0  12864-3 0  9998
2 57648  43.0059  28.0616 0001842 269.1890  90.8751 15.27596020143955
STARLINK-30299          
1 57650U 23122U   26079.84320696  .00005192  00000+0  19802-3 0  9994
2 57650  43.0098  29.4283 0003302 264.3047  95.7428 15.27591930143916
STARLINK-30294          
1 57651U 23122V   26080.08812227  .00000065  00000+0  11895-4 0  9998
2 57651  43.0046  16.8153 0001711 257.2879 102.7782 15.27580639144087
STARLINK-30276          
1 57652U 23122W   26079.90578107  .00002229  00000+0  92746-4 0  9992
2 57652  43.0050  29.0381 0001486 267.2288  92.8393 15.26742097143922
STARLINK-30289          
1 57653U 23122X   26080.00001157 -.00010719  00000+0 -39027-3 0  9999
2 57653  43.0002  17.7896 0001447 259.5581 113.7095 15.26758260  5649
GAOFEN-12 04            
1 57654U 23123A   26080.25425817  .00001150  00000+0  15877-3 0  9995
2 57654  97.9129 359.5461 0001521  73.8832 286.2547 14.80035077139629
STARLINK-30267          
1 57663U 23124A   26079.91745283  .00000689  00000+0  35387-4 0  9994
2 57663  53.1622 154.8729 0000883 128.0515 232.0565 15.30194860145285
